{"type":"FeatureCollection","crs":{"type":"name","properties":{"name":"EPSG:4326"}},"features":[{"type":"Feature","properties":{"id":1},"geometry":{"type":"Polygon","coordinates":[[[106.2064147,21.2625191],[106.2081387,21.2636694],[106.209336,21.26215],[106.2076332,21.2609865],[106.2064147,21.2625191]]]}},{"type":"Feature","properties":{"id":2},"geometry":{"type":"Polygon","coordinates":[[[105.9786281,21.3555003],[105.9783963,21.3552383],[105.97826,21.3551526],[105.9778624,21.355012],[105.977607,21.3549664],[105.9770744,21.3548609],[105.9765409,21.3557574],[105.9775453,21.3563628],[105.9776387,21.3562525],[105.9781276,21.3557861],[105.9781467,21.3557628],[105.9781769,21.3557258],[105.9786281,21.3555003]]]}},{"type":"Feature","properties":{"id":3},"geometry":{"type":"Polygon","coordinates":[[[105.9774045,21.3585073],[105.9778221,21.3585815],[105.9779194,21.3585716],[105.9779406,21.3585287],[105.9779707,21.3584513],[105.9779583,21.3584051],[105.9779265,21.3583755],[105.9774646,21.3582585],[105.9774045,21.3585073]]]}},{"type":"Feature","properties":{"id":4},"geometry":{"type":"Polygon","coordinates":[[[106.2003833,21.2758627],[106.2002374,21.2757814],[106.2001875,21.2758592],[106.2004391,21.2759994],[106.2004863,21.2759259],[106.2004707,21.2759172],[106.2005317,21.2758222],[106.2005599,21.2758379],[106.2006693,21.2756676],[106.2006397,21.2756511],[106.2007066,21.2755469],[106.2007315,21.2755607],[106.2007795,21.275486],[106.2005121,21.2753368],[106.2004571,21.2754224],[106.2006104,21.2755079],[106.200548,21.275605],[106.2005262,21.2755928],[106.2005132,21.2756131],[106.2004263,21.2755646],[106.2004371,21.2755477],[106.2004006,21.2755273],[106.2003014,21.2756819],[106.2003511,21.2757096],[106.2003607,21.2756945],[106.2004345,21.2757356],[106.2004223,21.2757546],[106.2004447,21.2757671],[106.2003833,21.2758627]]]}},{"type":"Feature","properties":{"id":5},"geometry":{"type":"Polygon","coordinates":[[[105.9600719,21.2983414],[105.9607129,21.2981165],[105.9607344,21.298079],[105.9602328,21.296802],[105.9601792,21.296782],[105.9595515,21.2970019],[105.959522,21.2970519],[105.9600146,21.2983255],[105.9600719,21.2983414]]]}},{"type":"Feature","properties":{"id":6},"geometry":{"type":"Polygon","coordinates":[[[106.8486099,21.3336243],[106.8486076,21.3336671],[106.8486966,21.3336712],[106.8486983,21.3336391],[106.8487965,21.3336436],[106.8487945,21.3336823],[106.8489141,21.3336877],[106.8489159,21.3336527],[106.8490096,21.333657],[106.8490076,21.3336956],[106.8490995,21.3336998],[106.8491017,21.3336595],[106.8491157,21.3336601],[106.8491181,21.3336159],[106.8491055,21.3336153],[106.8491159,21.3334292],[106.8486228,21.3334051],[106.8486121,21.3335938],[106.8485995,21.3335932],[106.8485978,21.3336238],[106.8486099,21.3336243]]]}}]}